{"type": "FeatureCollection", "features": [ {"type": "Feature", "properties": {"norad_id": 66578, "name": "STARLINK-35743", "group": "last-30-days", "lat": -33.11512788246312, "lon": -11.56193075482266, "alt_km": 417.39678743011245, "timestamp": "2025-12-12T05:47:27.525901+00:00", "meta": {"OBJECT_NAME": "STARLINK-35743", "OBJECT_ID": "2025-268X", "EPOCH": "2025-12-11T20:00:01.999872", "MEAN_MOTION": 15.50548315, "ECCENTRICITY": 0.00013424, "INCLINATION": 43.0002, "RA_OF_ASC_NODE": 126.4002, "ARG_OF_PERICENTER": 274.653, "MEAN_ANOMALY": 198.7649, "EPHEMERIS_TYPE": 0, "CLASSIFICATION_TYPE": "U", "NORAD_CAT_ID": 66578, "ELEMENT_SET_NO": 999, "REV_AT_EPOCH": 452, "BSTAR": -0.00025015335, "MEAN_MOTION_DOT": -0.00014972, "MEAN_MOTION_DDOT": 0}, "tle": {"line1": "1 66578U 25268X   25345.83335648 -.00014972  00000+0 -25015-3 0  9994", "line2": "2 66578  43.0002 126.4002 0001342 274.6530 198.7649 15.50548315  4527"}}, "geometry": {"type": "Point", "coordinates": [-11.56193075482266, -33.11512788246312]}}, {"type": "Feature", "properties": {"norad_id": 66579, "name": "STARLINK-35868", "group": "last-30-days", "lat": -34.032037679190104, "lon": -9.546592802011014, "alt_km": 417.28949586351155, "timestamp": "2025-12-12T05:47:27.525913+00:00", "meta": {"OBJECT_NAME": "STARLINK-35868", "OBJECT_ID": "2025-268Y", "EPOCH": "2025-12-11T20:00:01.999872", "MEAN_MOTION": 15.50554794, "ECCENTRICITY": 0.00015293, "INCLINATION": 43.0003, "RA_OF_ASC_NODE": 126.3956, "ARG_OF_PERICENTER": 268.8486, "MEAN_ANOMALY": 206.4893, "EPHEMERIS_TYPE": 0, "CLASSIFICATION_TYPE": "U", "NORAD_CAT_ID": 66579, "ELEMENT_SET_NO": 999, "REV_AT_EPOCH": 452, "BSTAR": -0.00056212078, "MEAN_MOTION_DOT": -0.00033151, "MEAN_MOTION_DDOT": 0}, "tle": {"line1": "1 66579U 25268Y   25345.83335648 -.00033151  00000+0 -56212-3 0  9998", "line2": "2 66579  43.0003 126.3956 0001529 268.8486 206.4893 15.50554794  4524"}}, "geometry": {"type": "Point", "coordinates": [-9.546592802011014, -34.032037679190104]}}, {"type": "Feature", "properties": {"norad_id": 66580, "name": "STARLINK-35872", "group": "last-30-days", "lat": -34.91508514761217, "lon": -7.487704048087904, "alt_km": 417.4482399373492, "timestamp": "2025-12-12T05:47:27.525923+00:00", "meta": {"OBJECT_NAME": "STARLINK-35872", "OBJECT_ID": "2025-268Z", "EPOCH": "2025-12-11T20:00:01.999872", "MEAN_MOTION": 15.50553968, "ECCENTRICITY": 0.00013623, "INCLINATION": 43.0002, "RA_OF_ASC_NODE": 126.3911, "ARG_OF_PERICENTER": 272.1654, "MEAN_ANOMALY": 205.0926, "EPHEMERIS_TYPE": 0, "CLASSIFICATION_TYPE": "U", "NORAD_CAT_ID": 66580, "ELEMENT_SET_NO": 999, "REV_AT_EPOCH": 452, "BSTAR": -0.00058323377, "MEAN_MOTION_DOT": -0.00034376, "MEAN_MOTION_DDOT": 0}, "tle": {"line1": "1 66580U 25268Z   25345.83335648 -.00034376  00000+0 -58323-3 0  9995", "line2": "2 66580  43.0002 126.3911 0001362 272.1654 205.0926 15.50553968  4520"}}, "geometry": {"type": "Point", "coordinates": [-7.487704048087904, -34.91508514761217]}}, {"type": "Feature", "properties": {"norad_id": 66581, "name": "STARLINK-35744", "group": "last-30-days", "lat": -35.754090912515764, "lon": -5.407889540112087, "alt_km": 417.4599942413015, "timestamp": "2025-12-12T05:47:27.525934+00:00", "meta": {"OBJECT_NAME": "STARLINK-35744", "OBJECT_ID": "2025-268AA", "EPOCH": "2025-12-11T20:00:01.999872", "MEAN_MOTION": 15.50560063, "ECCENTRICITY": 0.00016718, "INCLINATION": 43.0003, "RA_OF_ASC_NODE": 126.3857, "ARG_OF_PERICENTER": 286.8384, "MEAN_ANOMALY": 192.3082, "EPHEMERIS_TYPE": 0, "CLASSIFICATION_TYPE": "U", "NORAD_CAT_ID": 66581, "ELEMENT_SET_NO": 999, "REV_AT_EPOCH": 447, "BSTAR": -0.0003871394, "MEAN_MOTION_DOT": -0.00022972, "MEAN_MOTION_DDOT": 0}, "tle": {"line1": "1 66581U 25268AA  25345.83335648 -.00022972  00000+0 -38714-3 0  9997", "line2": "2 66581  43.0003 126.3857 0001671 286.8384 192.3082 15.50560063  4475"}}, "geometry": {"type": "Point", "coordinates": [-5.407889540112087, -35.754090912515764]}}, {"type": "Feature", "properties": {"norad_id": 66582, "name": "STARLINK-35746", "group": "last-30-days", "lat": -36.57001022930726, "lon": -3.2464315178690786, "alt_km": 417.47809797012087, "timestamp": "2025-12-12T05:47:27.525946+00:00", "meta": {"OBJECT_NAME": "STARLINK-35746", "OBJECT_ID": "2025-268AB", "EPOCH": "2025-12-11T20:00:01.999872", "MEAN_MOTION": 15.50548825, "ECCENTRICITY": 0.00014641, "INCLINATION": 43.0002, "RA_OF_ASC_NODE": 126.3804, "ARG_OF_PERICENTER": 278.0822, "MEAN_ANOMALY": 203.006, "EPHEMERIS_TYPE": 0, "CLASSIFICATION_TYPE": "U", "NORAD_CAT_ID": 66582, "ELEMENT_SET_NO": 999, "REV_AT_EPOCH": 452, "BSTAR": -0.00028257599, "MEAN_MOTION_DOT": -0.00016865, "MEAN_MOTION_DDOT": 0}, "tle": {"line1": "1 66582U 25268AB  25345.83335648 -.00016865  00000+0 -28258-3 0  9994", "line2": "2 66582  43.0002 126.3804 0001464 278.0822 203.0060 15.50548825  4521"}}, "geometry": {"type": "Point", "coordinates": [-3.2464315178690786, -36.57001022930726]}}, {"type": "Feature", "properties": {"norad_id": 66583, "name": "STARLINK-35941", "group": "last-30-days", "lat": -37.33824387664106, "lon": -1.0620750122732179, "alt_km": 417.4741304530635, "timestamp": "2025-12-12T05:47:27.525956+00:00", "meta": {"OBJECT_NAME": "STARLINK-35941", "OBJECT_ID": "2025-268AC", "EPOCH": "2025-12-11T20:00:01.999872", "MEAN_MOTION": 15.50545143, "ECCENTRICITY": 0.00014807, "INCLINATION": 43.0003, "RA_OF_ASC_NODE": 126.3761, "ARG_OF_PERICENTER": 276.7262, "MEAN_ANOMALY": 206.2772, "EPHEMERIS_TYPE": 0, "CLASSIFICATION_TYPE": "U", "NORAD_CAT_ID": 66583, "ELEMENT_SET_NO": 999, "REV_AT_EPOCH": 452, "BSTAR": -0.00021316144, "MEAN_MOTION_DOT": -0.00012811, "MEAN_MOTION_DDOT": 0}, "tle": {"line1": "1 66583U 25268AC  25345.83335648 -.00012811  00000+0 -21316-3 0  9990", "line2": "2 66583  43.0003 126.3761 0001480 276.7262 206.2772 15.50545143  4521"}}, "geometry": {"type": "Point", "coordinates": [-1.0620750122732179, -37.33824387664106]}}, {"type": "Feature", "properties": {"norad_id": 66584, "name": "STARLINK-35939", "group": "last-30-days", "lat": -38.07426569970688, "lon": 1.1949336488533489, "alt_km": 417.5189970528245, "timestamp": "2025-12-12T05:47:27.525966+00:00", "meta": {"OBJECT_NAME": "STARLINK-35939", "OBJECT_ID": "2025-268AD", "EPOCH": "2025-12-11T20:00:01.999872", "MEAN_MOTION": 15.50528475, "ECCENTRICITY": 0.00015472, "INCLINATION": 43.0002, "RA_OF_ASC_NODE": 126.3713, "ARG_OF_PERICENTER": 280.944, "MEAN_ANOMALY": 204.0149, "EPHEMERIS_TYPE": 0, "CLASSIFICATION_TYPE": "U", "NORAD_CAT_ID": 66584, "ELEMENT_SET_NO": 999, "REV_AT_EPOCH": 452, "BSTAR": 2.598819e-06, "MEAN_MOTION_DOT": -1.89e-06, "MEAN_MOTION_DDOT": 0}, "tle": {"line1": "1 66584U 25268AD  25345.83335648 -.00000189  00000+0  25988-5 0  9996", "line2": "2 66584  43.0002 126.3713 0001547 280.9440 204.0149 15.50528475  4520"}}, "geometry": {"type": "Point", "coordinates": [1.1949336488533489, -38.07426569970688]}}, {"type": "Feature", "properties": {"norad_id": 66585, "name": "STARLINK-35963", "group": "last-30-days", "lat": -38.75211466416378, "lon": 3.447638299808558, "alt_km": 417.289821174586, "timestamp": "2025-12-12T05:47:27.525976+00:00", "meta": {"OBJECT_NAME": "STARLINK-35963", "OBJECT_ID": "2025-268AE", "EPOCH": "2025-12-11T20:00:01.999872", "MEAN_MOTION": 15.50529629, "ECCENTRICITY": 0.00017109, "INCLINATION": 43.0003, "RA_OF_ASC_NODE": 126.3669, "ARG_OF_PERICENTER": 270.307, "MEAN_ANOMALY": 216.5352, "EPHEMERIS_TYPE": 0, "CLASSIFICATION_TYPE": "U", "NORAD_CAT_ID": 66585, "ELEMENT_SET_NO": 999, "REV_AT_EPOCH": 452, "BSTAR": 0.00026655809, "MEAN_MOTION_DOT": 0.00015299, "MEAN_MOTION_DDOT": 0}, "tle": {"line1": "1 66585U 25268AE  25345.83335648  .00015299  00000+0  26656-3 0  9995", "line2": "2 66585  43.0003 126.3669 0001710 270.3070 216.5352 15.50529629  4522"}}, "geometry": {"type": "Point", "coordinates": [3.447638299808558, -38.75211466416378]}}, {"type": "Feature", "properties": {"norad_id": 66586, "name": "TJS-21", "group": "last-30-days", "lat": 18.81938458408839, "lon": 172.27942394498956, "alt_km": 12603.089911833915, "timestamp": "2025-12-12T05:47:27.525989+00:00", "meta": {"OBJECT_NAME": "TJS-21", "OBJECT_ID": "2025-269A", "EPOCH": "2025-12-10T17:31:22.184832", "MEAN_MOTION": 2.00567425, "ECCENTRICITY": 0.6805766, "INCLINATION": 63.269, "RA_OF_ASC_NODE": 162.5612, "ARG_OF_PERICENTER": 269.7806, "MEAN_ANOMALY": 18.6565, "EPHEMERIS_TYPE": 0, "CLASSIFICATION_TYPE": "U", "NORAD_CAT_ID": 66586, "ELEMENT_SET_NO": 999, "REV_AT_EPOCH": 39, "BSTAR": -0.044965385, "MEAN_MOTION_DOT": 1.083e-05, "MEAN_MOTION_DDOT": 0}, "tle": {"line1": "1 66586U 25269A   25344.73011788  .00001083  00000+0 -44965-1 0  9999", "line2": "2 66586  63.2690 162.5612 6805766 269.7806  18.6565  2.00567425   392"}}, "geometry": {"type": "Point", "coordinates": [172.27942394498956, 18.81938458408839]}}, {"type": "Feature", "properties": {"norad_id": 66587, "name": "CZ-3B R/B", "group": "last-30-days", "lat": -40.2135307386517, "lon": 32.37818649578811, "alt_km": 183.52033648433007, "timestamp": "2025-12-12T05:47:27.526008+00:00", "meta": {"OBJECT_NAME": "CZ-3B R/B", "OBJECT_ID": "2025-269B", "EPOCH": "2025-12-10T19:33:40.006368", "MEAN_MOTION": 2.03086829, "ECCENTRICITY": 0.7519519, "INCLINATION": 51.3442, "RA_OF_ASC_NODE": 170.0917, "ARG_OF_PERICENTER": 228.3676, "MEAN_ANOMALY": 37.5722, "EPHEMERIS_TYPE": 0, "CLASSIFICATION_TYPE": "U", "NORAD_CAT_ID": 66587, "ELEMENT_SET_NO": 999, "REV_AT_EPOCH": 41, "BSTAR": 0.0011692039, "MEAN_MOTION_DOT": 0.00057137, "MEAN_MOTION_DDOT": 1.092514e-06}, "tle": {"line1": "1 66587U 25269B   25344.81504637  .00057137  10925-5  11692-2 0  9994", "line2": "2 66587  51.3442 170.0917 7519519 228.3676  37.5722  2.03086829   418"}}, "geometry": {"type": "Point", "coordinates": [32.37818649578811, -40.2135307386517]}}]}